GLOBALSTAR M023         
1 25621U 99004A   25344.45258062 -.00000082  00000+0  12002-3 0  9996
2 25621  52.0101 236.7061 0010068 152.2360  18.4233 12.62510010237995
GLOBALSTAR M040         
1 25622U 99004B   25344.49639823 -.00000063  00000+0  22981-3 0  9995
2 25622  51.9914 240.9868 0001803  61.1994 110.6524 12.62025065237513
GLOBALSTAR M036         
1 25623U 99004C   25344.42391470 -.00000073  00000+0  13821-3 0  9996
2 25623  51.9943 135.7902 0010880  33.1371 353.6746 11.86618296199903
GLOBALSTAR M038         
1 25624U 99004D   25344.58445241 -.00000055  00000+0  32784-3 0  9999
2 25624  51.9987 283.5634 0002455  57.3955 113.4769 12.32537213224122
GLOBALSTAR M022         
1 25649U 99012A   25344.53590919 -.00000108  00000+0 -25035-3 0  9994
2 25649  52.0005 171.5018 0003269 140.3096 254.0482 12.02507941197593
GLOBALSTAR M041         
1 25650U 99012B   25344.45929700 -.00000067  00000+0  24013-3 0  9999
2 25650  52.0037  58.5340 0000637 312.4427  47.6356 11.96681297199382
GLOBALSTAR M046         
1 25651U 99012C   25344.28572332 -.00000195  00000+0 -11703-2 0  9990
2 25651  52.0042 115.8866 0001493 216.1099 145.6870 12.09417329204975
GLOBALSTAR M037         
1 25652U 99012D   25344.32518083 -.00000029  00000+0  41601-3 0  9995
2 25652  52.0025   7.6459 0001939 210.0557 163.2398 12.62458043233521
